{
  "type": "FeatureCollection",
  "features": [
    {
      "type": "Feature",
      "properties": {
        "norad_id": 34765,
        "name": "IRIDIUM 33 DEB",
        "group": "iridium-33-debris",
        "lat": 27.96726133015782,
        "lon": -146.55604292321527,
        "alt_km": 754.417286271816,
        "timestamp": "2025-12-06T14:35:37.511190+00:00",
        "meta_object_name": "IRIDIUM 33 DEB",
        "meta_object_id": "1997-051LJ",
        "meta_epoch": "2025-12-05T11:30:48.073248",
        "meta_mean_motion": 14.40435892,
        "meta_eccentricity": 0.00147835,
        "meta_inclination": 86.3394,
        "meta_ra_of_asc_node": 35.8759,
        "meta_arg_of_pericenter": 237.5121,
        "meta_mean_anomaly": 187.0944,
        "meta_ephemeris_type": 0,
        "meta_classification_type": "U",
        "meta_norad_cat_id": 34765,
        "meta_element_set_no": 999,
        "meta_rev_at_epoch": 87509,
        "meta_bstar": 0.00075713692,
        "meta_mean_motion_dot": 2.427e-05,
        "meta_mean_motion_ddot": 0,
        "tle_line1": "1 34765U 97051LJ  25339.47972307  .00002427  00000+0  75714-3 0  9999",
        "tle_line2": "2 34765  86.3394  35.8759 0014783 237.5121 187.0944 14.40435892875093"
      },
      "geometry": {
        "type": "Point",
        "coordinates": [
          -146.55604292321527,
          27.96726133015782
        ]
      }
    },
    {
      "type": "Feature",
      "properties": {
        "norad_id": 34833,
        "name": "IRIDIUM 33 DEB",
        "group": "iridium-33-debris",
        "lat": -4.908622508244111,
        "lon": 53.32641830749415,
        "alt_km": 729.7401164770272,
        "timestamp": "2025-12-06T14:35:37.511206+00:00",
        "meta_object_name": "IRIDIUM 33 DEB",
        "meta_object_id": "1997-051MH",
        "meta_epoch": "2025-12-04T11:26:09.511872",
        "meta_mean_motion": 14.52297117,
        "meta_eccentricity": 0.00216,
        "meta_inclination": 86.3942,
        "meta_ra_of_asc_node": 54.5547,
        "meta_arg_of_pericenter": 123.9185,
        "meta_mean_anomaly": 254.0843,
        "meta_ephemeris_type": 0,
        "meta_classification_type": "U",
        "meta_norad_cat_id": 34833,
        "meta_element_set_no": 999,
        "meta_rev_at_epoch": 87595,
        "meta_bstar": 0.0019345,
        "meta_mean_motion_dot": 7.908e-05,
        "meta_mean_motion_ddot": 0,
        "tle_line1": "1 34833U 97051MH  25338.47649898  .00007908  00000+0  19345-2 0  9996",
        "tle_line2": "2 34833  86.3942  54.5547 0021600 123.9185 254.0843 14.52297117875952"
      },
      "geometry": {
        "type": "Point",
        "coordinates": [
          53.32641830749415,
          -4.908622508244111
        ]
      }
    },
    {
      "type": "Feature",
      "properties": {
        "norad_id": 34870,
        "name": "IRIDIUM 33 DEB",
        "group": "iridium-33-debris",
        "lat": 21.20254852059036,
        "lon": 135.4575366307911,
        "alt_km": 633.8908582669874,
        "timestamp": "2025-12-06T14:35:37.511226+00:00",
        "meta_object_name": "IRIDIUM 33 DEB",
        "meta_object_id": "1997-051MQ",
        "meta_epoch": "2025-12-06T06:01:40.638720",
        "meta_mean_motion": 14.7623031,
        "meta_eccentricity": 0.00152329,
        "meta_inclination": 86.3104,
        "meta_ra_of_asc_node": 317.0553,
        "meta_arg_of_pericenter": 206.8225,
        "meta_mean_anomaly": 216.4192,
        "meta_ephemeris_type": 0,
        "meta_classification_type": "U",
        "meta_norad_cat_id": 34870,
        "meta_element_set_no": 999,
        "meta_rev_at_epoch": 88815,
        "meta_bstar": 0.002728719,
        "meta_mean_motion_dot": 0.00018975,
        "meta_mean_motion_ddot": 0,
        "tle_line1": "1 34870U 97051MQ  25340.25116480  .00018975  00000+0  27287-2 0  9992",
        "tle_line2": "2 34870  86.3104 317.0553 0015232 206.8225 216.4192 14.76230310888150"
      },
      "geometry": {
        "type": "Point",
        "coordinates": [
          135.4575366307911,
          21.20254852059036
        ]
      }
    },
    {
      "type": "Feature",
      "properties": {
        "norad_id": 34896,
        "name": "IRIDIUM 33 DEB",
        "group": "iridium-33-debris",
        "lat": -42.515846587503454,
        "lon": 152.81106368944788,
        "alt_km": 663.787937008462,
        "timestamp": "2025-12-06T14:35:37.511244+00:00",
        "meta_object_name": "IRIDIUM 33 DEB",
        "meta_object_id": "1997-051MY",
        "meta_epoch": "2025-12-05T17:05:39.506784",
        "meta_mean_motion": 14.66165825,
        "meta_eccentricity": 0.00238087,
        "meta_inclination": 86.3279,
        "meta_ra_of_asc_node": 329.8372,
        "meta_arg_of_pericenter": 240.6117,
        "meta_mean_anomaly": 296.7708,
        "meta_ephemeris_type": 0,
        "meta_classification_type": "U",
        "meta_norad_cat_id": 34896,
        "meta_element_set_no": 999,
        "meta_rev_at_epoch": 87516,
        "meta_bstar": 0.001793551,
        "meta_mean_motion_dot": 9.929e-05,
        "meta_mean_motion_ddot": 0,
        "tle_line1": "1 34896U 97051MY  25339.71226281  .00009929  00000+0  17936-2 0  9999",
        "tle_line2": "2 34896  86.3279 329.8372 0023808 240.6117 296.7708 14.66165825875163"
      },
      "geometry": {
        "type": "Point",
        "coordinates": [
          152.81106368944788,
          -42.515846587503454
        ]
      }
    },
    {
      "type": "Feature",
      "properties": {
        "norad_id": 34926,
        "name": "IRIDIUM 33 DEB",
        "group": "iridium-33-debris",
        "lat": -33.504497997255065,
        "lon": -166.31690396245236,
        "alt_km": 728.1541702378527,
        "timestamp": "2025-12-06T14:35:37.511261+00:00",
        "meta_object_name": "IRIDIUM 33 DEB",
        "meta_object_id": "1997-051NF",
        "meta_epoch": "2025-12-06T02:10:24.331296",
        "meta_mean_motion": 14.53948419,
        "meta_eccentricity": 0.00763667,
        "meta_inclination": 86.1314,
        "meta_ra_of_asc_node": 11.3554,
        "meta_arg_of_pericenter": 315.4577,
        "meta_mean_anomaly": 71.8192,
        "meta_ephemeris_type": 0,
        "meta_classification_type": "U",
        "meta_norad_cat_id": 34926,
        "meta_element_set_no": 999,
        "meta_rev_at_epoch": 86360,
        "meta_bstar": 0.0073242874,
        "meta_mean_motion_dot": 0.00032185,
        "meta_mean_motion_ddot": 0,
        "tle_line1": "1 34926U 97051NF  25340.09055939  .00032185  00000+0  73243-2 0  9999",
        "tle_line2": "2 34926  86.1314  11.3554 0076366 315.4577  71.8192 14.53948419863607"
      },
      "geometry": {
        "type": "Point",
        "coordinates": [
          -166.31690396245236,
          -33.504497997255065
        ]
      }
    },
    {
      "type": "Feature",
      "properties": {
        "norad_id": 34985,
        "name": "IRIDIUM 33 DEB",
        "group": "iridium-33-debris",
        "lat": -68.21712410820031,
        "lon": -111.36412167534836,
        "alt_km": 745.1147235028584,
        "timestamp": "2025-12-06T14:35:37.511284+00:00",
        "meta_object_name": "IRIDIUM 33 DEB",
        "meta_object_id": "1997-051NR",
        "meta_epoch": "2025-12-06T05:15:00.430272",
        "meta_mean_motion": 14.41964666,
        "meta_eccentricity": 0.00201311,
        "meta_inclination": 86.3699,
        "meta_ra_of_asc_node": 59.6613,
        "meta_arg_of_pericenter": 242.4844,
        "meta_mean_anomaly": 146.2512,
        "meta_ephemeris_type": 0,
        "meta_classification_type": "U",
        "meta_norad_cat_id": 34985,
        "meta_element_set_no": 999,
        "meta_rev_at_epoch": 87081,
        "meta_bstar": 0.0012834659,
        "meta_mean_motion_dot": 4.235e-05,
        "meta_mean_motion_ddot": 0,
        "tle_line1": "1 34985U 97051NR  25340.21875498  .00004235  00000+0  12835-2 0  9993",
        "tle_line2": "2 34985  86.3699  59.6613 0020131 242.4844 146.2512 14.41964666870819"
      },
      "geometry": {
        "type": "Point",
        "coordinates": [
          -111.36412167534836,
          -68.21712410820031
        ]
      }
    },
    {
      "type": "Feature",
      "properties": {
        "norad_id": 35051,
        "name": "IRIDIUM 33 DEB",
        "group": "iridium-33-debris",
        "lat": 57.68042633781509,
        "lon": 17.36637891284726,
        "alt_km": 723.2219438253242,
        "timestamp": "2025-12-06T14:35:37.511301+00:00",
        "meta_object_name": "IRIDIUM 33 DEB",
        "meta_object_id": "1997-051NX",
        "meta_epoch": "2025-12-05T08:27:53.565120",
        "meta_mean_motion": 14.47546386,
        "meta_eccentricity": 0.00106363,
        "meta_inclination": 86.3242,
        "meta_ra_of_asc_node": 12.0813,
        "meta_arg_of_pericenter": 111.2483,
        "meta_mean_anomaly": 248.9857,
        "meta_ephemeris_type": 0,
        "meta_classification_type": "U",
        "meta_norad_cat_id": 35051,
        "meta_element_set_no": 999,
        "meta_rev_at_epoch": 86889,
        "meta_bstar": 0.0012192117,
        "meta_mean_motion_dot": 4.506e-05,
        "meta_mean_motion_ddot": 0,
        "tle_line1": "1 35051U 97051NX  25339.35270330  .00004506  00000+0  12192-2 0  9992",
        "tle_line2": "2 35051  86.3242  12.0813 0010636 111.2483 248.9857 14.47546386868892"
      },
      "geometry": {
        "type": "Point",
        "coordinates": [
          17.36637891284726,
          57.68042633781509
        ]
      }
    }
  ]
}